#dP2024  7  3  0  0  0.00000000      96 __u+U IGS20 FIT  IAC
## 2321 259200.00000000   900.00000000 60494 0.0000000000000
+   54   G02G03G04G05G06G07G08G09G10G11G12G13G14G15G16G17G18
+        G19G20G21G22G23G24G25G26G27G28G29G30G31G32R01R02R03
+        R04R05R07R08R09R11R12R13R14R15R16R17R18R19R20R21R22
+        R24R25R26  0  0  0  0  0  0  0  0  0  0  0  0  0  0
+          0  0  0  0  0  0  0  0  0  0  0  0  0  0  0  0  0
++         6  7  6  7  6  5  6  7  8  6  6  6  6  7  6  6  6
++         6  7  5  7  7  7  5  6  4  7  7  6  7  6  8  7  7
++         6  7  6  5  7  6  6  6  7  6  6  5  6  8  7  5  5
++         7  6  6  0  0  0  0  0  0  0  0  0  0  0  0  0  0
++         0  0  0  0  0  0  0  0  0  0  0  0  0  0  0  0  0
%c M  cc GPS ccc cccc cccc cccc cccc ccccc ccccc ccccc ccccc
%c cc cc ccc ccc cccc cccc cccc cccc ccccc ccccc ccccc ccccc
%f  0.0000000  0.000000000  0.00000000000  0.000000000000000
%f  0.0000000  0.000000000  0.00000000000  0.000000000000000
%i    0    0    0    0      0      0      0      0         0
%i    0    0    0    0      0      0      0      0         0
/* INFORMATION & ANALYSIS CENTER (IAC)      ULTRA-RAPID DATA
/* S/V CLOCKS ARE ALIGNED TO GNSS TIME                      
/* G:C1WC2W R:C1PC2P E:C1XC5X C:C2IC6I J:C1CC2S             
/* PCV:IGS20_2317 OL/AL:FES2004  NONE     YN ORB:CoN CLK:CoN
*  2024 07 03 18 30  0.00000000
PG02  -4897.683249  17111.169638 -19139.474997   -406.004919
PG03   8264.398838  20004.307607 -15638.295735    442.113265
PG04   -355.147016  25712.314630   6375.365130    396.284898
PG05   7100.979441 -13181.976307  21749.982484   -178.495589
PG06  25218.870764  -4313.318236  -7276.841468    182.967443
PG07  14916.539026   9791.781082  20329.625595    -77.738890
PG08  -6374.200853  25069.693180   4812.998415    258.442558
PG09   8822.155370  19233.876742  15934.939580    258.905348
PG10 -22598.198696  -8757.025854 -11033.099103    -57.177580
PG11  22663.215889 -12262.691744   6337.918140   -698.035157
PG12  -4423.759247 -20175.893405 -17003.780255   -519.294380
PG13  13589.173172 -19927.988984  10632.792385    662.150155
PG14  22651.592645  11732.759712  -7750.099958    440.250277
PG15   3006.939484 -25868.849532   4166.535759    177.045683
PG16 -11760.768718   9521.423740  21513.822696   -246.862611
PG17  13966.928285   5381.230815 -21515.214961    684.371644
PG18 -15204.130890  -8843.833919  19976.617695   -632.492218
PG19  15950.848301  -4023.470328 -20935.737578    505.272387
PG20  15975.005601  -7374.944488  19913.652347    373.153964
PG21  -9873.845518  17623.235086 -16245.382123    111.335830
PG22  20921.939313   5917.147968 -14635.265377    -35.158367
PG23 -21211.928676 -16171.173147    153.060136    265.210236
PG24   6062.671423 -18382.641386 -18437.156032   -481.389993
PG25 -14663.200159 -20181.820399  -9823.575359    498.123730
PG26 -21189.530138    135.480860  16078.271024    126.397530
PG27 -12560.839283  18197.279479  14108.978909    -30.170897
PG28 -24560.033485   3225.830534  -9593.511320   -315.900213
PG29  -4784.968802 -21939.818633  14033.976802   -591.330221
PG30  22915.230605   1892.938794  13671.607684   -363.957658
PG31 -24805.267712   9978.781387   1213.256406   -227.021655
PG32 -14820.872726  -2847.114383 -21646.112852   -613.896316
PR01  11259.259338  18627.987202  13314.462662     90.264445
PR02  11344.466985   2501.429893  22745.864141    -23.559355
PR03   5752.790265 -15691.605268  19337.934702    103.182994
PR04  -2672.430208 -24762.961496   5563.838673    243.827993
PR05  -9677.752060 -20762.489054 -11233.904846    134.033231
PR07  -5414.296817  16236.863586 -18853.932656     85.880769
PR08   3044.035542  24763.719498  -5170.463360     -5.554348
PR09 -24390.066809  -3364.576033   6523.006532    195.671771
PR11   1546.210299  11688.924686  22636.113541     19.365391
PR12  19701.199497  11670.090812  11260.595992     42.027647
PR13  24652.222773   5249.900459  -3928.414825    -48.955816
PR14  14831.280494  -5718.590743 -19939.558608     26.651139
PR15  -3199.576605 -12150.191175 -22172.208747     78.228307
PR16 -19636.922804 -11540.572508 -11428.364123     27.027535
PR17  18455.831514 -17534.309464   1166.592676    101.384429
PR18   8707.490623 -17611.684466  16304.058460    150.122552
PR19  -3905.045943 -10167.084313  23059.164125   -282.577043
PR20 -18684.360936   6112.789570  16236.186849   -115.549313
PR21 -18768.523414  17282.389926   -788.874808   -114.494569
PR22  -7970.575302  17264.478660 -16975.404520     94.139852
PR24  18807.741858  -7132.706405 -15660.967127    -62.337784
PR25 -19038.323705  16933.436669  -1466.516915    -94.485859
PR26   2483.500989  24530.559909  -6569.204022     -4.880174
*  2024 07 03 18 45  0.00000000
PG02  -6911.561166  18014.444647 -17641.338416   -405.998301
PG03   6710.001091  18971.872195 -17559.927896    442.128671
PG04   -685.228544  26237.595537   3578.331552    396.291838
PG05   9197.648244 -11770.798871  21780.961923   -178.496535
PG06  24363.424807  -3795.985106  -9953.489366    182.947399
PG07  12859.002089  10741.795473  21217.751568    -77.731458
PG08  -6612.042346  24317.260629   7557.037775    258.457769
PG09   8467.784497  20928.884149  13863.081465    258.918767
PG10 -23411.826776  -9554.773253  -8445.449505    -57.185966
PG11  23274.321424 -12236.640276   3543.010505   -698.041804
PG12  -2828.000848 -18981.116567 -18661.937433   -519.297444
PG13  13433.042510 -18529.316016  13059.015237    662.152510
PG14  23062.674017  12399.028208  -5065.303162    440.258231
PG15   3367.068616 -25185.591722   6886.113379    177.049451
PG16 -13618.200904   7836.588421  21139.836412   -246.852691
PG17  13471.977741   7857.766363 -21058.475682    684.365343
PG18 -13068.582107  -9787.414673  21003.471153   -632.496185
PG19  15487.756890  -1662.599142 -21634.255161    505.277039
PG20  17881.481379  -6271.993346  18611.403757    373.154172
PG21 -11619.281097  18285.452269 -14195.393030    111.333340
PG22  21974.721881   7169.685814 -12400.481419    -35.162906
PG23 -20960.196034 -16219.310103   3026.745460    265.218263
PG24   7881.788863 -19152.724714 -16822.439833   -481.391798
PG25 -13550.939057 -19652.882927 -12251.694074    498.124084
PG26 -22551.030757   -981.871111  14128.793372    126.391485
PG27 -12573.883078  16390.887757  16160.921753    -30.171949
PG28 -23531.986673   2501.013312 -12069.395167   -315.914825
PG29  -4310.991584 -23357.775815  11704.240572   -591.329033
PG30  21481.130324   2745.816398  15701.599820   -363.951978
PG31 -24897.865811   9751.748026  -1605.572843   -227.021790
PG32 -14533.448103  -5337.016265 -21388.853224   -613.894934
PR01  11792.489405  20007.401532  10570.076126     90.265561
PR02  12048.374060   5157.549331  21914.879996    -23.559193
PR03   6292.428683 -13277.300679  20912.929029    103.184064
PR04  -2630.062635 -23874.333930   8634.724005    243.828926
PR05 -10126.479406 -21895.959070  -8310.078230    134.034030
PR07  -5944.688015  13852.991173 -20523.045225     85.880883
PR08   2984.513423  23914.346721  -8252.731305     -5.554878
PR09 -25003.148466  -3427.185083   3409.771582    195.674068
PR11  -1169.723247  10955.113491  23020.975076     19.364602
PR12  18233.521939  11159.416281  13939.602498     42.028257
PR13  24962.390957   5197.137202   -741.721557    -48.956522
PR14  17124.871353  -5186.704987 -18172.347941     26.651149
PR15   -522.852082 -11400.799385 -22786.526432     78.228254
PR16 -18142.008095 -11015.301231 -14104.138275     27.028352
PR17  18285.167700 -17629.355244  -2067.942095    101.387872
PR18   9946.580894 -19007.080329  13844.679443    150.124404
PR19  -1838.679205 -12072.362068  22387.406336   -282.578257
PR20 -16987.115067   4798.694823  18401.061289   -115.549194
PR21 -18553.375312  17358.588892   2444.187255   -114.497938
PR22  -9350.223837  18654.677784 -14643.227279     94.134755
PR24  17250.551588  -5762.058749 -17863.254557    -62.339192
PR25 -18926.143133  17032.936300   1743.801883    -94.487923
PR26   2378.870662  23524.546528  -9584.004376     -4.879379
EOF
